NORAD_CAT_ID,OBJECT_NAME,OBJECT_TYPE,EPOCH,MEAN_MOTION,ECCENTRICITY,INCLINATION,RA_OF_ASC_NODE,ARG_OF_PERICENTER,MEAN_ANOMALY,BSTAR,MEAN_MOTION_DOT,MEAN_MOTION_DDOT,TLE_LINE0,TLE_LINE1,TLE_LINE2,SEMIMAJOR_AXIS,PERIOD,APOGEE,PERIGEE,DECAYED
53289.0,STARLINK-4176,PAYLOAD,2023-08-15 15:53:52,15.08837397,0.0001124,53.217,65.7417,88.1432,271.9689,8.2132e-05,1.019e-05,0.0,0 STARLINK-4176,1 53289U 22086AZ  23227.66241511  .00001019  00000-0  82132-4 0  9998,2 53289  53.2170  65.7417 0001124  88.1432 271.9689 15.08837397 59637,6917.888,95.438,540.531,538.976,0.0
53289.0,STARLINK-4176,PAYLOAD,2023-08-15 22:15:24,15.08852097,0.0001069,53.2169,64.5522,90.8979,269.2136,-8.7159e-06,-4.27e-06,0.0,0 STARLINK-4176,1 53289U 22086AZ  23227.92736744 -.00000427  00000-0 -87159-5 0  9993,2 53289  53.2169  64.5522 0001069  90.8979 269.2136 15.08852097 59678,6917.843,95.437,540.448,538.969,0.0
53289.0,STARLINK-4176,PAYLOAD,2023-08-16 06:12:20,15.08837467,0.000115,53.2169,63.0654,87.3211,272.7912,5.734e-05,6.25e-06,0.0,0 STARLINK-4176,1 53289U 22086AZ  23228.25857605  .00000625  00000-0  57340-4 0  9996,2 53289  53.2169  63.0654 0001150  87.3211 272.7912 15.08837467 59720,6917.888,95.438,540.549,538.958,0.0
53289.0,STARLINK-4176,PAYLOAD,2023-08-16 22:06:11,15.08852205,0.0001505,53.216,60.0916,86.677,273.4394,-3.4646e-05,-8.4e-06,0.0,0 STARLINK-4176,1 53289U 22086AZ  23228.92097053 -.00000840  00000-0 -34646-4 0  9998,2 53289  53.2160  60.0916 0001505  86.6770 273.4394 15.08852205 59825,6917.843,95.437,540.749,538.667,0.0
53289.0,STARLINK-4176,PAYLOAD,2023-08-18 07:29:18,15.08839433,0.000179,53.2138,53.8478,76.6518,283.4674,0.00010464,1.378e-05,0.0,0 STARLINK-4176,1 53289U 22086AZ  23230.31201635  .00001378  00000-0  10464-3 0  9993,2 53289  53.2138  53.8478 0001790  76.6518 283.4674 15.08839433 60033,6917.882,95.438,540.985,538.509,0.0
53289.0,STARLINK-4176,PAYLOAD,2023-08-19 12:06:14,15.0884093,0.0001065,53.2166,48.4954,78.4503,281.6608,8.9569e-05,1.138e-05,0.0,0 STARLINK-4176,1 53289U 22086AZ  23231.50433538  .00001138  00000-0  89569-4 0  9991,2 53289  53.2166  48.4954 0001065  78.4503 281.6608 15.08840930 60213,6917.878,95.437,540.479,539.006,0.0
53289.0,STARLINK-4176,PAYLOAD,2023-08-20 11:57:01,15.08834636,0.000114,53.2168,44.0354,72.0161,288.0955,9.546e-05,1.232e-05,0.0,0 STARLINK-4176,1 53289U 22086AZ  23232.49793927  .00001232  00000-0  95460-4 0  9993,2 53289  53.2168  44.0354 0001140  72.0161 288.0955 15.08834636 60363,6917.897,95.438,540.55,538.973,0.0
53289.0,STARLINK-4176,PAYLOAD,2023-08-21 18:09:21,15.08844172,0.0001159,53.2174,38.3846,89.8354,270.2771,0.00012558,1.712e-05,0.0,0 STARLINK-4176,1 53289U 22086AZ  23233.75649409  .00001712  00000-0  12558-3 0  9997,2 53289  53.2174  38.3846 0001159  89.8354 270.2771 15.08844172 60558,6917.868,95.437,540.534,538.931,0.0
53289.0,STARLINK-4176,PAYLOAD,2023-08-22 21:10:55,15.08826294,0.0001073,53.2176,33.3275,100.1027,260.0086,-2.2763e-05,-6.5e-06,0.0,0 STARLINK-4176,1 53289U 22086AZ  23234.88259133 -.00000650  00000-0 -22763-4 0  9995,2 53289  53.2176  33.3275 0001073 100.1027 260.0086 15.08826294 60720,6917.922,95.438,540.53,539.045,0.0
53289.0,STARLINK-4176,PAYLOAD,2023-08-24 12:55:33,15.08841878,0.0001281,53.2171,25.8955,85.2346,274.8792,0.00024194,3.565e-05,0.0,0 STARLINK-4176,1 53289U 22086AZ  23236.53858290  .00003565  00000-0  24194-3 0  9993,2 53289  53.2171  25.8955 0001281  85.2346 274.8792 15.08841878 61132,6917.875,95.437,540.626,538.853,0.0
53289.0,STARLINK-4176,PAYLOAD,2023-08-25 12:46:20,15.08840954,0.0001299,53.2171,21.4356,86.3232,273.7909,0.00022828,3.347e-05,0.0,0 STARLINK-4176,1 53289U 22086AZ  23237.53218149  .00003347  00000-0  22828-3 0  9997,2 53289  53.2171  21.4356 0001299  86.3232 273.7909 15.08840954 61282,6917.877,95.437,540.641,538.844,0.0
53289.0,STARLINK-4176,PAYLOAD,2023-08-25 19:07:52,15.08852259,0.0001556,53.2173,20.2463,68.2319,291.8838,0.00014062,1.951e-05,0.0,0 STARLINK-4176,1 53289U 22086AZ  23237.79713632  .00001951  00000-0  14062-3 0  9992,2 53289  53.2173  20.2463 0001556  68.2319 291.8838 15.08852259 61161,6917.843,95.437,540.784,538.632,0.0
53289.0,STARLINK-4176,PAYLOAD,2023-08-26 12:37:06,15.08860597,0.0001927,53.2175,16.9703,141.6818,218.4311,-0.00031006,-5.222e-05,0.0,0 STARLINK-4176,1 53289U 22086AZ  23238.52577465 -.00005222  00000-0 -31006-3 0  9990,2 53289  53.2175  16.9703 0001927 141.6818 218.4311 15.08860597 61439,6917.817,95.436,541.015,538.349,0.0
53289.0,STARLINK-4176,PAYLOAD,2023-08-26 15:47:52,15.08852041,0.0002241,53.2185,16.3724,154.5601,205.5502,-4.9464e-05,-1.076e-05,0.0,0 STARLINK-4176,1 53289U 22086AZ  23238.65825020 -.00001076  00000-0 -49464-4 0  9998,2 53289  53.2185  16.3724 0002241 154.5601 205.5502 15.08852041 61298,6917.844,95.437,541.259,538.158,0.0
53289.0,STARLINK-4176,PAYLOAD,2023-08-27 18:49:26,15.08844712,0.0001246,53.2184,11.3233,103.004,257.1092,8.8718e-05,1.125e-05,0.0,0 STARLINK-4176,1 53289U 22086AZ  23239.78433879  .00001125  00000-0  88718-4 0  9998,2 53289  53.2184  11.3233 0001246 103.0040 257.1092 15.08844712 61469,6917.866,95.437,540.593,538.869,0.0
53289.0,STARLINK-4176,PAYLOAD,2023-08-28 15:29:27,15.08846382,0.0001287,53.2181,7.4596,88.694,271.4199,0.00011929,1.611e-05,0.0,0 STARLINK-4176,1 53289U 22086AZ  23240.64545872  .00001611  00000-0  11929-3 0  9991,2 53289  53.2181   7.4596 0001287  88.6940 271.4199 15.08846382 61750,6917.861,95.437,540.616,538.836,0.0
53289.0,STARLINK-4176,PAYLOAD,2023-08-29 01:01:46,15.08841053,0.0001285,53.2175,5.6756,85.3091,274.8048,0.00010016,1.307e-05,0.0,0 STARLINK-4176,1 53289U 22086AZ  23241.04290216  .00001307  00000-0  10016-3 0  9993,2 53289  53.2175   5.6756 0001285  85.3091 274.8048 15.08841053 61659,6917.877,95.437,540.631,538.853,0.0
53289.0,STARLINK-4176,PAYLOAD,2023-08-29 13:44:52,15.08839944,0.0001226,53.2178,3.2972,90.336,269.7773,1.7808e-05,-4e-08,0.0,0 STARLINK-4176,1 53289U 22086AZ  23241.57282600 -.00000004  00000-0  17808-4 0  9990,2 53289  53.2178   3.2972 0001226  90.3360 269.7773 15.08839944 61896,6917.881,95.438,540.594,538.897,0.0
53289.0,STARLINK-4176,PAYLOAD,2023-08-30 08:49:29,15.0883953,0.0001207,53.2176,359.7293,93.4181,266.6949,-1.1309e-05,-4.68e-06,0.0,0 STARLINK-4176,1 53289U 22086AZ  23242.36770820 -.00000468  00000-0 -11309-4 0  9999,2 53289  53.2176 359.7293 0001207  93.4181 266.6949 15.08839530 61851,6917.882,95.438,540.582,538.912,0.0
53289.0,STARLINK-4176,PAYLOAD,2023-08-30 13:35:39,15.08842603,0.0001333,53.2182,358.8349,81.7629,278.3514,-0.00012935,-2.346e-05,0.0,0 STARLINK-4176,1 53289U 22086AZ  23242.56643007 -.00002346  00000-0 -12935-3 0  9999,2 53289  53.2182 358.8349 0001333  81.7629 278.3514 15.08842603 62042,6917.872,95.437,540.66,538.815,0.0
53289.0,STARLINK-4176,PAYLOAD,2023-08-31 10:15:40,15.08835809,0.0001183,53.2177,354.9717,89.9705,270.1423,8.7967e-05,1.112e-05,0.0,0 STARLINK-4176,1 53289U 22086AZ  23243.42754962  .00001112  00000-0  87967-4 0  9994,2 53289  53.2177 354.9717 0001183  89.9705 270.1423 15.08835809 62016,6917.893,95.438,540.577,538.94,0.0
53289.0,STARLINK-4176,PAYLOAD,2023-09-01 13:17:13,15.08841798,0.0001456,53.217,349.9166,86.6269,273.4889,0.00016895,2.402e-05,0.0,0 STARLINK-4176,1 53289U 22086AZ  23244.55362675  .00002402  00000-0  16895-3 0  9999,2 53289  53.2170 349.9166 0001456  86.6269 273.4889 15.08841798 62345,6917.875,95.437,540.747,538.733,0.0
53289.0,STARLINK-4176,PAYLOAD,2023-09-01 16:27:59,15.08848483,0.0001361,53.2176,349.3222,83.9719,276.1428,0.00010976,1.46e-05,0.0,0 STARLINK-4176,1 53289U 22086AZ  23244.68610360  .00001460  00000-0  10976-3 0  9997,2 53289  53.2176 349.3222 0001361  83.9719 276.1428 15.08848483 62205,6917.854,95.437,540.661,538.778,0.0
53289.0,STARLINK-4176,PAYLOAD,2023-09-02 02:00:18,15.08840991,0.0001351,53.2177,347.538,79.7793,280.3351,4.9326e-05,4.97e-06,0.0,0 STARLINK-4176,1 53289U 22086AZ  23245.08354978  .00000497  00000-0  49326-4 0  9993,2 53289  53.2177 347.5380 0001351  79.7793 280.3351 15.08840991 62269,6917.877,95.437,540.677,538.808,0.0
53289.0,STARLINK-4176,PAYLOAD,2023-09-02 13:08:00,15.08847858,0.0001249,53.2182,345.4547,87.7484,272.3651,9.3586e-05,1.202e-05,0.0,0 STARLINK-4176,1 53289U 22086AZ  23245.54722313  .00001202  00000-0  93586-4 0  9998,2 53289  53.2182 345.4547 0001249  87.7484 272.3651 15.08847858 62497,6917.856,95.437,540.585,538.857,0.0
53289.0,STARLINK-4176,PAYLOAD,2023-09-03 12:58:46,15.08848663,0.0001269,53.218,340.9941,90.0801,270.0336,0.0001179,1.589e-05,0.0,0 STARLINK-4176,1 53289U 22086AZ  23246.54081875  .00001589  00000-0  11790-3 0  9994,2 53289  53.2180 340.9941 0001269  90.0801 270.0336 15.08848663 62642,6917.854,95.437,540.597,538.841,0.0
53289.0,STARLINK-4176,PAYLOAD,2023-09-04 09:38:48,15.08831562,9.99e-05,53.2187,337.13,73.0066,287.1036,5.5238e-06,-2e-06,0.0,0 STARLINK-4176,1 53289U 22086AZ  23247.40195420 -.00000200  00000-0  55238-5 0  9999,2 53289  53.2187 337.1300 0000999  73.0066 287.1036 15.08831562 62612,6917.906,95.438,540.462,539.08,0.0
53289.0,STARLINK-4176,PAYLOAD,2023-09-04 12:49:35,15.08824412,0.0001086,53.2188,336.5324,94.6875,265.4241,-2.0573e-05,-6.15e-06,0.0,0 STARLINK-4176,1 53289U 22086AZ  23247.53443932 -.00000615  00000-0 -20573-4 0  9991,2 53289  53.2188 336.5324 0001086  94.6875 265.4241 15.08824412 62799,6917.928,95.439,540.544,539.042,0.0
53289.0,STARLINK-4176,PAYLOAD,2023-09-05 09:29:35,15.08839463,0.0001243,53.2185,332.6674,95.2322,264.8812,3.6596e-05,2.95e-06,0.0,0 STARLINK-4176,1 53289U 22086AZ  23248.39555167  .00000295  00000-0  36596-4 0  9994,2 53289  53.2185 332.6674 0001243  95.2322 264.8812 15.08839463 62766,6917.882,95.438,540.607,538.887,0.0
53289.0,STARLINK-4176,PAYLOAD,2023-09-06 04:34:13,15.08831161,0.0001201,53.2188,329.0989,94.9035,265.2094,0.00018919,2.724e-05,0.0,0 STARLINK-4176,1 53289U 22086AZ  23249.19043678  .00002724  00000-0  18919-3 0  9999,2 53289  53.2188 329.0989 0001201  94.9035 265.2094 15.08831161 62886,6917.907,95.438,540.603,538.942,0.0
